ONEWEB-0229             
1 48779U 21045N   24115.89943957  .00000206  00000+0  51212-3 0  9995
2 48779  87.9039  55.0729 0001717  81.5830 278.5494 13.15548585141428
ONEWEB-0228             
1 48780U 21045P   24115.83843698  .00000080  00000+0  17872-3 0  9996
2 48780  87.9036  55.0617 0001795  80.3033 279.8300 13.15548823141336
ONEWEB-0232             
1 48781U 21045Q   24115.90736616  .00000214  00000+0  53504-3 0  9997
2 48781  87.9034  55.0722 0001782  82.2441 277.8891 13.15547931141660
ONEWEB-0231             
1 48782U 21045R   24115.88518411  .00000204  00000+0  50741-3 0  9995
2 48782  87.9050  55.0971 0001691  89.7767 270.3557 13.15548519141353
ONEWEB-0234             
1 48783U 21045S   24116.20921363 -.00000448  00000+0 -12236-2 0  9995
2 48783  87.9042  54.9968 0003327  79.8753 280.2753 13.15553561142668
ONEWEB-0238             
1 48784U 21045T   24115.85902982 -.00000140  00000+0 -40662-3 0  9996
2 48784  87.9039  55.0848 0002061  79.5076 280.6286 13.15548468141386
ONEWEB-0240             
1 48785U 21045U   24115.86854498  .00000012  00000+0 -27599-5 0  9999
2 48785  87.9036  55.0507 0001940  94.1845 265.9508 13.15549257141412
ONEWEB-0246             
1 48786U 21045V   24115.86299858 -.00000046  00000+0 -15690-3 0  9998
2 48786  87.9039  55.0552 0001739  77.7484 282.3841 13.15548802141281
